[{"OBJECT_NAME":"STARLINK-37234","OBJECT_ID":"2026-068AD","EPOCH":"2026-04-14T05:44:41.556768","MEAN_MOTION":15.80945185,"ECCENTRICITY":6.684e-5,"INCLINATION":53.1599,"RA_OF_ASC_NODE":330.923,"ARG_OF_PERICENTER":44.6412,"MEAN_ANOMALY":315.4664,"EPHEMERIS_TYPE":0,"CLASSIFICATION_TYPE":"U","NORAD_CAT_ID":68535,"ELEMENT_SET_NO":999,"REV_AT_EPOCH":229,"BSTAR":0.00080619706,"MEAN_MOTION_DOT":0.00161975,"MEAN_MOTION_DDOT":0},{"OBJECT_NAME":"STARLINK-37173","OBJECT_ID":"2026-068AE","EPOCH":"2026-04-14T06:00:02.000160","MEAN_MOTION":15.80901126,"ECCENTRICITY":7.918e-5,"INCLINATION":53.1593,"RA_OF_ASC_NODE":330.88,"ARG_OF_PERICENTER":96.9384,"MEAN_ANOMALY":319.5464,"EPHEMERIS_TYPE":0,"CLASSIFICATION_TYPE":"U","NORAD_CAT_ID":68536,"ELEMENT_SET_NO":999,"REV_AT_EPOCH":352,"BSTAR":-0.0003339634,"MEAN_MOTION_DOT":-0.00066192,"MEAN_MOTION_DDOT":0},{"OBJECT_NAME":"SWC-1","OBJECT_ID":"2026-069C","EPOCH":"2026-04-04T00:55:14.478528","MEAN_MOTION":1.02608558,"ECCENTRICITY":0.84368008,"INCLINATION":28.3174,"RA_OF_ASC_NODE":359.0866,"ARG_OF_PERICENTER":78.4879,"MEAN_ANOMALY":25.8197,"EPHEMERIS_TYPE":0,"CLASSIFICATION_TYPE":"U","NORAD_CAT_ID":68540,"ELEMENT_SET_NO":999,"REV_AT_EPOCH":3,"BSTAR":0,"MEAN_MOTION_DOT":-0.00012113,"MEAN_MOTION_DDOT":6.8891712e-5},{"OBJECT_NAME":"STARLINK-37326","OBJECT_ID":"2026-070A","EPOCH":"2026-04-14T06:00:02.000160","MEAN_MOTION":15.89258183,"ECCENTRICITY":9.839e-5,"INCLINATION":53.1588,"RA_OF_ASC_NODE":206.2735,"ARG_OF_PERICENTER":83.9352,"MEAN_ANOMALY":10.187,"EPHEMERIS_TYPE":0,"CLASSIFICATION_TYPE":"U","NORAD_CAT_ID":68542,"ELEMENT_SET_NO":999,"REV_AT_EPOCH":309,"BSTAR":-0.0041182181,"MEAN_MOTION_DOT":-0.01079832,"MEAN_MOTION_DDOT":0},{"OBJECT_NAME":"STARLINK-36308","OBJECT_ID":"2026-070B","EPOCH":"2026-04-14T06:00:02.000160","MEAN_MOTION":15.89351217,"ECCENTRICITY":0.00010135,"INCLINATION":53.1585,"RA_OF_ASC_NODE":206.2665,"ARG_OF_PERICENTER":78.196,"MEAN_ANOMALY":19.16,"EPHEMERIS_TYPE":0,"CLASSIFICATION_TYPE":"U","NORAD_CAT_ID":68543,"ELEMENT_SET_NO":999,"REV_AT_EPOCH":304,"BSTAR":-0.0040988833,"MEAN_MOTION_DOT":-0.01079888,"MEAN_MOTION_DDOT":0},{"OBJECT_NAME":"STARLINK-37263","OBJECT_ID":"2026-070C","EPOCH":"2026-04-14T06:00:02.000160","MEAN_MOTION":15.89538716,"ECCENTRICITY":8.554e-5,"INCLINATION":53.1582,"RA_OF_ASC_NODE":206.2536,"ARG_OF_PERICENTER":86.2644,"MEAN_ANOMALY":17.4648,"EPHEMERIS_TYPE":0,"CLASSIFICATION_TYPE":"U","NORAD_CAT_ID":68544,"ELEMENT_SET_NO":999,"REV_AT_EPOCH":309,"BSTAR":-0.0040427528,"MEAN_MOTION_DOT":-0.01075786,"MEAN_MOTION_DDOT":0},{"OBJECT_NAME":"STARLINK-37289","OBJECT_ID":"2026-070D","EPOCH":"2026-04-14T06:00:02.000160","MEAN_MOTION":15.89462302,"ECCENTRICITY":0.00010178,"INCLINATION":53.1579,"RA_OF_ASC_NODE":206.2608,"ARG_OF_PERICENTER":75.1011,"MEAN_ANOMALY":25.0364,"EPHEMERIS_TYPE":0,"CLASSIFICATION_TYPE":"U","NORAD_CAT_ID":68545,"ELEMENT_SET_NO":999,"REV_AT_EPOCH":309,"BSTAR":-0.0040622085,"MEAN_MOTION_DOT":-0.01076725,"MEAN_MOTION_DDOT":0},{"OBJECT_NAME":"STARLINK-37290","OBJECT_ID":"2026-070E","EPOCH":"2026-04-14T06:00:02.000160","MEAN_MOTION":15.89615484,"ECCENTRICITY":0.00010039,"INCLINATION":53.1586,"RA_OF_ASC_NODE":206.2456,"ARG_OF_PERICENTER":71.342,"MEAN_ANOMALY":36.0465,"EPHEMERIS_TYPE":0,"CLASSIFICATION_TYPE":"U","NORAD_CAT_ID":68546,"ELEMENT_SET_NO":999,"REV_AT_EPOCH":309,"BSTAR":-0.004039664,"MEAN_MOTION_DOT":-0.01078886,"MEAN_MOTION_DDOT":0},{"OBJECT_NAME":"STARLINK-37245","OBJECT_ID":"2026-070F","EPOCH":"2026-04-14T06:00:02.000160","MEAN_MOTION":15.89786622,"ECCENTRICITY":0.00010164,"INCLINATION":53.1584,"RA_OF_ASC_NODE":206.2312,"ARG_OF_PERICENTER":77.5717,"MEAN_ANOMALY":36.8188,"EPHEMERIS_TYPE":0,"CLASSIFICATION_TYPE":"U","NORAD_CAT_ID":68547,"ELEMENT_SET_NO":999,"REV_AT_EPOCH":309,"BSTAR":-0.0040317363,"MEAN_MOTION_DOT":-0.01085419,"MEAN_MOTION_DDOT":0},{"OBJECT_NAME":"STARLINK-37145","OBJECT_ID":"2026-070G","EPOCH":"2026-04-14T06:00:02.000160","MEAN_MOTION":15.89717779,"ECCENTRICITY":0.00011619,"INCLINATION":53.1582,"RA_OF_ASC_NODE":206.2393,"ARG_OF_PERICENTER":75.2906,"MEAN_ANOMALY":35.3005,"EPHEMERIS_TYPE":0,"CLASSIFICATION_TYPE":"U","NORAD_CAT_ID":68548,"ELEMENT_SET_NO":999,"REV_AT_EPOCH":309,"BSTAR":-0.0040479201,"MEAN_MOTION_DOT":-0.01085956,"MEAN_MOTION_DDOT":0},{"OBJECT_NAME":"STARLINK-36204","OBJECT_ID":"2026-070H","EPOCH":"2026-04-14T06:00:02.000160","MEAN_MOTION":15.89868007,"ECCENTRICITY":9.723e-5,"INCLINATION":53.1585,"RA_OF_ASC_NODE":206.224,"ARG_OF_PERICENTER":81.3245,"MEAN_ANOMALY":36.6527,"EPHEMERIS_TYPE":0,"CLASSIFICATION_TYPE":"U","NORAD_CAT_ID":68549,"ELEMENT_SET_NO":999,"REV_AT_EPOCH":304,"BSTAR":-0.0040231927,"MEAN_MOTION_DOT":-0.01087372,"MEAN_MOTION_DDOT":0},{"OBJECT_NAME":"STARLINK-36304","OBJECT_ID":"2026-070J","EPOCH":"2026-04-14T06:00:02.000160","MEAN_MOTION":15.90022763,"ECCENTRICITY":9.813e-5,"INCLINATION":53.1584,"RA_OF_ASC_NODE":206.2083,"ARG_OF_PERICENTER":83.8061,"MEAN_ANOMALY":41.5316,"EPHEMERIS_TYPE":0,"CLASSIFICATION_TYPE":"U","NORAD_CAT_ID":68550,"ELEMENT_SET_NO":999,"REV_AT_EPOCH":304,"BSTAR":-0.0040116082,"MEAN_MOTION_DOT":-0.01092268,"MEAN_MOTION_DDOT":0},{"OBJECT_NAME":"STARLINK-37288","OBJECT_ID":"2026-070K","EPOCH":"2026-04-14T06:00:02.000160","MEAN_MOTION":15.90117541,"ECCENTRICITY":8.922e-5,"INCLINATION":53.1584,"RA_OF_ASC_NODE":206.2015,"ARG_OF_PERICENTER":84.0049,"MEAN_ANOMALY":44.6155,"EPHEMERIS_TYPE":0,"CLASSIFICATION_TYPE":"U","NORAD_CAT_ID":68551,"ELEMENT_SET_NO":999,"REV_AT_EPOCH":309,"BSTAR":-0.0040067227,"MEAN_MOTION_DOT":-0.01095762,"MEAN_MOTION_DDOT":0},{"OBJECT_NAME":"STARLINK-37295","OBJECT_ID":"2026-070L","EPOCH":"2026-04-14T06:00:02.000160","MEAN_MOTION":15.89937817,"ECCENTRICITY":8.861e-5,"INCLINATION":53.1583,"RA_OF_ASC_NODE":206.2157,"ARG_OF_PERICENTER":84.7893,"MEAN_ANOMALY":37.0861,"EPHEMERIS_TYPE":0,"CLASSIFICATION_TYPE":"U","NORAD_CAT_ID":68552,"ELEMENT_SET_NO":999,"REV_AT_EPOCH":309,"BSTAR":-0.0040267597,"MEAN_MOTION_DOT":-0.01091639,"MEAN_MOTION_DDOT":0},{"OBJECT_NAME":"STARLINK-37254","OBJECT_ID":"2026-070M","EPOCH":"2026-04-14T06:00:02.000160","MEAN_MOTION":15.9027766,"ECCENTRICITY":8.64e-5,"INCLINATION":53.1581,"RA_OF_ASC_NODE":206.185,"ARG_OF_PERICENTER":91.0755,"MEAN_ANOMALY":45.4341,"EPHEMERIS_TYPE":0,"CLASSIFICATION_TYPE":"U","NORAD_CAT_ID":68553,"ELEMENT_SET_NO":999,"REV_AT_EPOCH":309,"BSTAR":-0.0041717754,"MEAN_MOTION_DOT":-0.01143733,"MEAN_MOTION_DDOT":0}]
