STARLINK-37234          
1 68535U 26068AD  26104.23936987  .00161975  00000+0  80620-3 0  9996
2 68535  53.1599 330.9230 0000668  44.6412 315.4664 15.80945185  2290
STARLINK-37173          
1 68536U 26068AE  26104.25002315 -.00066192  00000+0 -33396-3 0  9993
2 68536  53.1593 330.8800 0000791  96.9384 319.5464 15.80901126  3529
SWC-1                   
1 68540U 26069C   26094.03836202 -.00012113  68892-4  00000+0 0  9996
2 68540  28.3174 359.0866 8436800  78.4879  25.8197  1.02608558    39
STARLINK-37326          
1 68542U 26070A   26104.25002315 -.01079832  00000+0 -41182-2 0  9990
2 68542  53.1588 206.2735 0000983  83.9352  10.1870 15.89258183  3091
STARLINK-36308          
1 68543U 26070B   26104.25002315 -.01079888  00000+0 -40989-2 0  9996
2 68543  53.1585 206.2665 0001013  78.1960  19.1600 15.89351217  3044
STARLINK-37263          
1 68544U 26070C   26104.25002315 -.01075786  00000+0 -40428-2 0  9998
2 68544  53.1582 206.2536 0000855  86.2644  17.4648 15.89538716  3090
STARLINK-37289          
1 68545U 26070D   26104.25002315 -.01076725  00000+0 -40622-2 0  9999
2 68545  53.1579 206.2608 0001017  75.1011  25.0364 15.89462302  3090
STARLINK-37290          
1 68546U 26070E   26104.25002315 -.01078886  00000+0 -40397-2 0  9999
2 68546  53.1586 206.2456 0001003  71.3420  36.0465 15.89615484  3092
STARLINK-37245          
1 68547U 26070F   26104.25002315 -.01085419  00000+0 -40317-2 0  9992
2 68547  53.1584 206.2312 0001016  77.5717  36.8188 15.89786622  3096
STARLINK-37145          
1 68548U 26070G   26104.25002315 -.01085956  00000+0 -40479-2 0  9998
2 68548  53.1582 206.2393 0001161  75.2906  35.3005 15.89717779  3099
STARLINK-36204          
1 68549U 26070H   26104.25002315 -.01087372  00000+0 -40232-2 0  9990
2 68549  53.1585 206.2240 0000972  81.3245  36.6527 15.89868007  3046
STARLINK-36304          
1 68550U 26070J   26104.25002315 -.01092268  00000+0 -40116-2 0  9993
2 68550  53.1584 206.2083 0000981  83.8061  41.5316 15.90022763  3049
STARLINK-37288          
1 68551U 26070K   26104.25002315 -.01095762  00000+0 -40067-2 0  9991
2 68551  53.1584 206.2015 0000892  84.0049  44.6155 15.90117541  3094
STARLINK-37295          
1 68552U 26070L   26104.25002315 -.01091639  00000+0 -40268-2 0  9994
2 68552  53.1583 206.2157 0000886  84.7893  37.0861 15.89937817  3092
STARLINK-37254          
1 68553U 26070M   26104.25002315 -.01143733  00000+0 -41718-2 0  9999
2 68553  53.1581 206.1850 0000864  91.0755  45.4341 15.90277660  3095
